[{"OBJECT_NAME":"HULIANWANG DIGUI-145","OBJECT_ID":"2026-007J","EPOCH":"2026-03-26T06:23:32.093952","MEAN_MOTION":13.29327503,"ECCENTRICITY":1.91e-5,"INCLINATION":50.0115,"RA_OF_ASC_NODE":22.8702,"ARG_OF_PERICENTER":67.6959,"MEAN_ANOMALY":292.3934,"EPHEMERIS_TYPE":0,"CLASSIFICATION_TYPE":"U","NORAD_CAT_ID":67443,"ELEMENT_SET_NO":999,"REV_AT_EPOCH":976,"BSTAR":9.2997e-5,"MEAN_MOTION_DOT":-8.1e-7,"MEAN_MOTION_DDOT":0},{"OBJECT_NAME":"GUOWANG GROUP 20 OBJECT A","OBJECT_ID":"2026-047A","EPOCH":"2026-03-24T11:18:42.584544","MEAN_MOTION":14.00120126,"ECCENTRICITY":4.55e-5,"INCLINATION":50.0057,"RA_OF_ASC_NODE":10.2567,"ARG_OF_PERICENTER":280.6416,"MEAN_ANOMALY":79.4436,"EPHEMERIS_TYPE":0,"CLASSIFICATION_TYPE":"U","NORAD_CAT_ID":68129,"ELEMENT_SET_NO":999,"REV_AT_EPOCH":164,"BSTAR":2.5604904e-5,"MEAN_MOTION_DOT":-1.12e-6,"MEAN_MOTION_DDOT":0},{"OBJECT_NAME":"GUOWANG GROUP 20 OBJECT B","OBJECT_ID":"2026-047B","EPOCH":"2026-03-24T11:16:10.999200","MEAN_MOTION":14.00458019,"ECCENTRICITY":2.294e-5,"INCLINATION":50.006,"RA_OF_ASC_NODE":10.248,"ARG_OF_PERICENTER":293.0264,"MEAN_ANOMALY":67.0614,"EPHEMERIS_TYPE":0,"CLASSIFICATION_TYPE":"U","NORAD_CAT_ID":68130,"ELEMENT_SET_NO":999,"REV_AT_EPOCH":163,"BSTAR":4.9171838e-5,"MEAN_MOTION_DOT":-7.7e-7,"MEAN_MOTION_DDOT":0},{"OBJECT_NAME":"GUOWANG GROUP 20 OBJECT C","OBJECT_ID":"2026-047C","EPOCH":"2026-03-23T21:32:20.729760","MEAN_MOTION":14.00819949,"ECCENTRICITY":0.0001695,"INCLINATION":50.0005,"RA_OF_ASC_NODE":12.534,"ARG_OF_PERICENTER":156.149,"MEAN_ANOMALY":203.9492,"EPHEMERIS_TYPE":0,"CLASSIFICATION_TYPE":"U","NORAD_CAT_ID":68131,"ELEMENT_SET_NO":999,"REV_AT_EPOCH":156,"BSTAR":2.2265347e-5,"MEAN_MOTION_DOT":-1.17e-6,"MEAN_MOTION_DDOT":0},{"OBJECT_NAME":"GUOWANG GROUP 20 OBJECT D","OBJECT_ID":"2026-047D","EPOCH":"2026-03-24T14:35:39.447744","MEAN_MOTION":14.01110084,"ECCENTRICITY":2.212e-5,"INCLINATION":50.0037,"RA_OF_ASC_NODE":9.6473,"ARG_OF_PERICENTER":23.0477,"MEAN_ANOMALY":337.0436,"EPHEMERIS_TYPE":0,"CLASSIFICATION_TYPE":"U","NORAD_CAT_ID":68132,"ELEMENT_SET_NO":999,"REV_AT_EPOCH":165,"BSTAR":3.0364787e-5,"MEAN_MOTION_DOT":-1.05e-6,"MEAN_MOTION_DDOT":0},{"OBJECT_NAME":"GUOWANG GROUP 20 OBJECT E","OBJECT_ID":"2026-047E","EPOCH":"2026-03-22T07:51:30.148128","MEAN_MOTION":14.03282701,"ECCENTRICITY":0.00018453,"INCLINATION":50.0037,"RA_OF_ASC_NODE":18.9087,"ARG_OF_PERICENTER":286.6306,"MEAN_ANOMALY":73.4395,"EPHEMERIS_TYPE":0,"CLASSIFICATION_TYPE":"U","NORAD_CAT_ID":68133,"ELEMENT_SET_NO":999,"REV_AT_EPOCH":134,"BSTAR":2.1599298e-5,"MEAN_MOTION_DOT":-1.17e-6,"MEAN_MOTION_DDOT":0},{"OBJECT_NAME":"GUOWANG GROUP 20 OBJECT F","OBJECT_ID":"2026-047F","EPOCH":"2026-03-22T12:56:16.652832","MEAN_MOTION":14.03853988,"ECCENTRICITY":0.00015499,"INCLINATION":50.0098,"RA_OF_ASC_NODE":18.0376,"ARG_OF_PERICENTER":290.5042,"MEAN_ANOMALY":69.5697,"EPHEMERIS_TYPE":0,"CLASSIFICATION_TYPE":"U","NORAD_CAT_ID":68134,"ELEMENT_SET_NO":999,"REV_AT_EPOCH":136,"BSTAR":8.0291987e-5,"MEAN_MOTION_DOT":-2.4e-7,"MEAN_MOTION_DDOT":0},{"OBJECT_NAME":"GUOWANG GROUP 20 OBJECT G","OBJECT_ID":"2026-047G","EPOCH":"2026-03-22T14:39:59.859936","MEAN_MOTION":14.03554926,"ECCENTRICITY":0.00023781,"INCLINATION":50.013,"RA_OF_ASC_NODE":17.7516,"ARG_OF_PERICENTER":303.3923,"MEAN_ANOMALY":56.6754,"EPHEMERIS_TYPE":0,"CLASSIFICATION_TYPE":"U","NORAD_CAT_ID":68135,"ELEMENT_SET_NO":999,"REV_AT_EPOCH":138,"BSTAR":0.00011610707,"MEAN_MOTION_DOT":3.2e-7,"MEAN_MOTION_DDOT":0},{"OBJECT_NAME":"GUOWANG GROUP 20 OBJECT H","OBJECT_ID":"2026-047H","EPOCH":"2026-03-23T21:23:31.171200","MEAN_MOTION":14.02326786,"ECCENTRICITY":0.0001735,"INCLINATION":50.0075,"RA_OF_ASC_NODE":12.5331,"ARG_OF_PERICENTER":306.0179,"MEAN_ANOMALY":54.0564,"EPHEMERIS_TYPE":0,"CLASSIFICATION_TYPE":"U","NORAD_CAT_ID":68136,"ELEMENT_SET_NO":999,"REV_AT_EPOCH":155,"BSTAR":3.1573e-5,"MEAN_MOTION_DOT":-1.02e-6,"MEAN_MOTION_DDOT":0},{"OBJECT_NAME":"GUOWANG GROUP 20 OBJECT J","OBJECT_ID":"2026-047J","EPOCH":"2026-03-23T21:21:21.697344","MEAN_MOTION":14.02259904,"ECCENTRICITY":1.75e-5,"INCLINATION":50.0081,"RA_OF_ASC_NODE":12.5219,"ARG_OF_PERICENTER":124.6965,"MEAN_ANOMALY":235.3956,"EPHEMERIS_TYPE":0,"CLASSIFICATION_TYPE":"U","NORAD_CAT_ID":68137,"ELEMENT_SET_NO":999,"REV_AT_EPOCH":156,"BSTAR":9.1454e-6,"MEAN_MOTION_DOT":-1.37e-6,"MEAN_MOTION_DDOT":0}]
